IRIDIUM 64 [+]          
1 25287U 98021C   08263.61894806 -.00000019  00000-0 -13969-4 0  2149
2 25287  86.3951 118.2999 0002327  72.9527 287.1908 14.34220170547402
IRIDIUM 65 [+]          
1 25288U 98021D   08263.55552863  .00000023  00000-0  11412-5 0  2636
2 25288  86.3960 118.2832 0002320  74.2186 285.9266 14.34220190547414
IRIDIUM 66 [+]          
1 25289U 98021E   08263.56186024  .00000018  00000-0 -53123-6 0  2259
2 25289  86.3949 118.2119 0002303  75.6985 284.4482 14.34220457547413
IRIDIUM 67 [+]          
1 25290U 98021F   08263.56821193  .00000023  00000-0  13168-5 0   420
2 25290  86.3949 118.2953 0002288  80.5885 279.5582 14.34220059547422
IRIDIUM 68 [+]          
1 25291U 98021G   08263.57455559 -.00000046  00000-0 -23652-4 0  2596
2 25291  86.3965 118.3542 0002323  75.3774 284.7680 14.34219966547393
IRIDIUM 69 [-]          
1 25319U 98026A   08263.29710115  .00000088  00000-0  22867-4 0   783
2 25319  86.4032 146.8516 0001716  19.5045 340.6217 14.37048655544273
IRIDIUM 71 [-]          
1 25320U 98026B   08263.24140828  .00000092  00000-0  24166-4 0  9056
2 25320  86.4011 144.4462 0004115  52.0990 308.0573 14.37643157544533
IRIDIUM 70 [+]          
1 25342U 98032A   08263.59992410  .00000074  00000-0  19357-4 0  2764
2 25342  86.3950 118.4375 0002335  77.9426 282.2021 14.34220498541505
IRIDIUM 72 [+]          
1 25343U 98032B   08263.58723768  .00000011  00000-0 -31594-5 0  2649
2 25343  86.3946 118.2619 0002318  76.2282 283.9176 14.34220141541507
IRIDIUM 73 [-]          
1 25344U 98032C   08263.19406394  .00000112  00000-0  25183-4 0  1163
2 25344  86.4382 109.8123 0001592  68.4838 291.6535 14.47084705545532
IRIDIUM 74 [S]          
1 25345U 98032D   08263.55889899  .00000041  00000-0  62485-5 0  2797
2 25345  86.4471 118.3999 0002372  79.1330 281.0160 14.42952404542361
IRIDIUM 75 [+]          
1 25346U 98032E   08263.59358076  .00000029  00000-0  31827-5 0  2916
2 25346  86.3941 118.3971 0002305  78.0007 282.1434 14.34220303542079
IRIDIUM 3 [+]           
1 25431U 98048A   08263.43846804  .00000163  00000-0  51265-4 0  2222
2 25431  86.4013 150.0264 0002410  64.6218 295.5228 14.34219573527995
IRIDIUM 76 [+]          
1 25432U 98048B   08263.24819249  .00000185  00000-0  59000-4 0  1526
2 25432  86.4020 149.9632 0003033  75.6916 284.4616 14.34219738527956
IRIDIUM 82 [+]          
1 25467U 98051A   08263.56626481 -.00000049  00000-0 -24735-4 0  3831
2 25467  86.3913 276.1938 0001729  67.5423 292.5951 14.34217582529015
IRIDIUM 81 [+]          
1 25468U 98051B   08263.55990392  .00000074  00000-0  19321-4 0  2151
2 25468  86.3906 276.0710 0002518  81.2929 278.8552 14.34221185525234
IRIDIUM 80 [+]          
1 25469U 98051C   08263.54089660 -.00000073  00000-0 -33240-4 0  2122
2 25469  86.3906 276.1869 0002506  80.2051 279.9426 14.34217331525233
IRIDIUM 77 [+]          
1 25471U 98051E   08263.54722853 -.00000028  00000-0 -16890-4 0  3889
2 25471  86.3910 276.0837 0003098  58.9295 301.2207 14.34218159530437
IRIDIUM 2 [-]           
1 25527U 98066A   08263.57676017  .00000521  00000-0  41502-4 0  5763
2 25527  85.5578  74.5967 0012769  74.9347 285.3295 14.97825018537721
IRIDIUM 86 [+]          
1 25528U 98066B   08263.50578988 -.00000088  00000-0 -38439-4 0  4321
2 25528  86.3894 244.3294 0002480  59.6902 300.4535 14.34214218521755
IRIDIUM 84 [+]          
1 25530U 98066D   08263.53749002 -.00000066  00000-0 -30716-4 0   988
2 25530  86.3905 244.4185 0002528  78.3113 281.8365 14.34214715519398
IRIDIUM 83 [+]          
1 25531U 98066E   08263.49942566 -.00000092  00000-0 -39879-4 0  2063
2 25531  86.3909 244.4386 0002507  78.4934 281.6540 14.34214843516746
IRIDIUM 20 [+]          
1 25577U 98074A   08263.21013591  .00000191  00000-0  61130-4 0  1432
2 25577  86.4023 149.9473 0002320  77.6278 282.5177 14.34219663510784
IRIDIUM 11 [S]          
1 25578U 98074B   08263.60803757 -.00000051  00000-0 -16847-4 0  3150
2 25578  86.5207 149.9600 0002483  75.0039 285.1446 14.54938801518206
IRIDIUM 14 [S]          
1 25777U 99032A   08263.60425210  .00000022  00000-0  18491-6 0  2862
2 25777  86.5141 118.3180 0002803  91.8563 268.2955 14.54938180492580
IRIDIUM 21 [+]          
1 25778U 99032B   08263.58089813 -.00000039  00000-0 -20934-4 0  2060
2 25778  86.3936 118.3378 0004325  81.6396 278.5279 14.34220177490514
IRIDIUM 91 [S]          
1 27372U 02005A   08263.27815681  .00000180  00000-0  28120-4 0  7865
2 27372  86.5855 181.7460 0002494 203.4236 156.6862 14.66611585353453
IRIDIUM 90 [S]          
1 27373U 02005B   08263.54416275 -.00000073  00000-0 -27986-4 0  7617
2 27373  86.4411 244.2261 0005637 139.7157 220.4460 14.42944872350969
IRIDIUM 94 [S]          
1 27374U 02005C   08263.28474110  .00000280  00000-0  46159-4 0  8084
2 27374  86.5851 181.3734 0002587  72.8345 287.3153 14.66611676353459
IRIDIUM 95 [S]          
1 27375U 02005D   08263.30879061  .00000113  00000-0  33238-4 0  7866
2 27375  86.4040 181.5201 0002478  80.4698 279.6775 14.34219124353276
IRIDIUM 96 [S]          
1 27376U 02005E   08263.29699618  .00000165  00000-0  25524-4 0  8051
2 27376  86.5845 181.3305 0002499  78.6785 281.4716 14.66611146353454
IRIDIUM 97 [+]          
1 27450U 02031A   08263.39465069  .00000099  00000-0  28180-4 0  7039
2 27450  86.3971 213.2631 0001880 166.5179 193.6066 14.34213184332600
IRIDIUM 98 [S]          
1 27451U 02031B   08263.56943721 -.00000064  00000-0 -25142-4 0  7090
2 27451  86.4453 276.2270 0001499 299.8552  60.2495 14.42948873331823
